STARLINK-35809          
1 66373U 25254AB  26167.21537227  .00010908  00000+0  37992-3 0  9994
2 66373  53.1603 132.4059 0001759  84.5330 275.5871 15.30195739 34098
STARLINK-35831          
1 66374U 25254AC  26167.19701561  .00030677  00000+0  91497-3 0  9991
2 66374  53.1579 131.5790 0001462  92.6661 267.4509 15.34413234 34108
STARLINK-35826          
1 66375U 25254AD  26167.62719233  .00016988  00000+0  58481-3 0  9990
2 66375  53.1599 129.9960 0001143  85.5286 274.5845 15.30176501 34168
STARLINK-35139          
1 66380U 25257A   26167.55363355  .00016847  00000+0  50870-3 0  9999
2 66380  53.1587 116.1414 0001260  95.0119 265.1028 15.34395824 34832
STARLINK-35158          
1 66381U 25257B   26167.83335647  .00048489  00000+0  14377-2 0  9992
2 66381  53.1609 116.7118 0001888  86.3249 144.6126 15.34383227  5863
STARLINK-35639          
1 66382U 25257C   26167.15057170  .00008758  00000+0  30748-3 0  9996
2 66382  53.1592 120.0156 0001260  85.4421 274.6723 15.30199962 34801
STARLINK-35690          
1 66383U 25257D   26167.15650534  .00015184  00000+0  45959-3 0  9991
2 66383  53.1583 117.9258 0001310  92.4313 267.6840 15.34401720 34831
STARLINK-35662          
1 66384U 25257E   26167.55712113  .00021593  00000+0  73896-3 0  9990
2 66384  53.1583 117.5756 0001084  88.5892 271.5233 15.30204007 34876
STARLINK-35659          
1 66385U 25257F   26167.55152804  .00022234  00000+0  66718-3 0  9994
2 66385  53.1586 116.1251 0001192  80.5272 279.5865 15.34401704 34897
STARLINK-35651          
1 66386U 25257G   26167.55500199  .00032623  00000+0  11076-2 0  9998
2 66386  53.1586 117.5610 0001141  90.9293 269.1839 15.30233392 34870
STARLINK-35661          
1 66387U 25257H   26167.15019193  .00019798  00000+0  59558-3 0  9990
2 66387  53.1582 117.8845 0001113  81.4335 278.6794 15.34397919 34832
STARLINK-35647          
1 66388U 25257J   26167.15997504  .00028173  00000+0  95928-3 0  9990
2 66388  53.1578 119.3626 0001340  94.2961 265.8193 15.30215183 34807
STARLINK-35694          
1 66389U 25257K   26167.55606626  .00012938  00000+0  44814-3 0  9997
2 66389  53.1577 117.5672 0001532 111.7460 248.3704 15.30204606 34879
STARLINK-35665          
1 66390U 25257L   26167.56767138  .00014341  00000+0  49529-3 0  9994
2 66390  53.1592 117.6211 0001393  80.0725 280.0433 15.30206367 34974
STARLINK-35656          
1 66391U 25257M   26167.57781071  .00015773  00000+0  54330-3 0  9994
2 66391  53.1587 120.5329 0001251  93.6633 266.4511 15.30213416 34937
STARLINK-35671          
1 66392U 25257N   26167.15678842  .00012539  00000+0  43462-3 0  9991
2 66392  53.1583 119.3402 0001355  87.6912 272.4244 15.30209951 34816
STARLINK-35652          
1 66393U 25257P   26167.66667823  .00036074  00000+0  12250-2 0  9995
2 66393  53.1584 117.6256 0001202  90.3485 228.6206 15.30176910  5832
STARLINK-35672          
1 66394U 25257Q   26167.57256837  .00030119  00000+0  89879-3 0  9991
2 66394  53.1595 116.2543 0001116  65.3315 294.7803 15.34406197 34899
STARLINK-35681          
1 66395U 25257R   26167.66667823  .00040135  00000+0  13617-2 0  9998
2 66395  53.1578 117.1539 0001190  98.5957  98.8122 15.30157448  5880
STARLINK-35669          
1 66396U 25257S   26167.54942407  .00018565  00000+0  55925-3 0  9991
2 66396  53.1572 116.1105 0001255  99.3264 260.7881 15.34399120 34899
STARLINK-35510          
1 66397U 25257T   26167.15784302  .00015440  00000+0  53224-3 0  9996
2 66397  53.1582 119.3469 0001323  95.5125 264.6027 15.30206602 34814
STARLINK-35642          
1 66398U 25257U   26167.59571162  .00024752  00000+0  74141-3 0  9990
2 66398  53.1596 116.3948 0001363  90.4340 269.6818 15.34395247 34895
STARLINK-35657          
1 66399U 25257V   26167.13344965  .00023282  00000+0  69790-3 0  9991
2 66399  53.1596 118.4878 0001301  81.4032 278.7118 15.34407283 34811
STARLINK-35667          
1 66400U 25257W   26166.14378396  .00030214  00000+0  90131-3 0  9995
2 66400  53.1595 122.9748 0001551  79.5725 280.5452 15.34415654 34670
STARLINK-35668          
1 66401U 25257X   26167.57467358  .00027157  00000+0  81209-3 0  9999
2 66401  53.1603 116.2642 0001431  83.3615 276.7550 15.34395389 34890
STARLINK-35602          
1 66403U 25257Z   26167.56836155  .00025421  00000+0  76079-3 0  9996
2 66403  53.1599 116.2235 0001201  98.3758 261.7381 15.34406940 34895
STARLINK-35691          
1 66404U 25257AA  26167.56415309  .00016037  00000+0  48463-3 0  9990
2 66404  53.1590 116.1933 0001465  81.2843 278.8325 15.34408859 34897
STARLINK-35683          
1 66405U 25257AB  26167.58728938  .00027363  00000+0  81732-3 0  9998
2 66405  53.1609 116.3415 0000195 302.7023  57.3961 15.34426428 34827
STARLINK-34840          
1 66406U 25257AC  26167.55783779  .00018346  00000+0  55261-3 0  9999
2 66406  53.1581 116.1491 0001338  95.9147 264.2008 15.34410215 34836
STARLINK-35686          
1 66407U 25257AD  26167.55573532  .00025559  00000+0  76507-3 0  9994
2 66407  53.1576 116.1444 0001343 108.1104 252.0045 15.34397925 34899
