OBJECT_NAME,OBJECT_ID,EPOCH,MEAN_MOTION,ECCENTRICITY,INCLINATION,RA_OF_ASC_NODE,ARG_OF_PERICENTER,MEAN_ANOMALY,EPHEMERIS_TYPE,CLASSIFICATION_TYPE,NORAD_CAT_ID,ELEMENT_SET_NO,REV_AT_EPOCH,BSTAR,MEAN_MOTION_DOT,MEAN_MOTION_DDOT
STARLINK-35809,2025-254AB,2026-06-16T05:10:08.164128,15.30195739,.0001759,53.1603,132.4059,84.5330,275.5871,0,U,66373,999,3409,.37992E-3,.10908E-3,0
STARLINK-35831,2025-254AC,2026-06-16T04:43:42.148704,15.34413234,.00014624,53.1579,131.5790,92.6661,267.4509,0,U,66374,999,3410,.91496549E-3,.30677E-3,0
STARLINK-35826,2025-254AD,2026-06-16T15:03:09.417312,15.30176501,.0001143,53.1599,129.9960,85.5286,274.5845,0,U,66375,999,3416,.58481E-3,.16988E-3,0
STARLINK-35139,2025-257A,2026-06-16T13:17:13.938720,15.34395824,.000126,53.1587,116.1414,95.0119,265.1028,0,U,66380,999,3483,.5087E-3,.16847E-3,0
STARLINK-35158,2025-257B,2026-06-16T20:00:01.999008,15.34383227,.0001888,53.1609,116.7118,86.3249,144.6126,0,U,66381,999,586,.14377E-2,.48489E-3,0
STARLINK-35639,2025-257C,2026-06-16T03:36:49.394880,15.30199962,.00012601,53.1592,120.0156,85.4421,274.6723,0,U,66382,999,3480,.30748215E-3,.8758E-4,0
STARLINK-35690,2025-257D,2026-06-16T03:45:22.061376,15.34401720,.000131,53.1583,117.9258,92.4313,267.6840,0,U,66383,999,3483,.45959127E-3,.15184E-3,0
STARLINK-35662,2025-257E,2026-06-16T13:22:15.265632,15.30204007,.0001084,53.1583,117.5756,88.5892,271.5233,0,U,66384,999,3487,.73896E-3,.21593E-3,0
STARLINK-35659,2025-257F,2026-06-16T13:14:12.022656,15.34401704,.0001192,53.1586,116.1251,80.5272,279.5865,0,U,66385,999,3489,.66718E-3,.22234E-3,0
STARLINK-35651,2025-257G,2026-06-16T13:19:12.171936,15.30233392,.0001141,53.1586,117.5610,90.9293,269.1839,0,U,66386,999,3487,.11076E-2,.32623E-3,0
STARLINK-35661,2025-257H,2026-06-16T03:36:16.582752,15.34397919,.00011135,53.1582,117.8845,81.4335,278.6794,0,U,66387,999,3483,.59558016E-3,.19798E-3,0
STARLINK-35647,2025-257J,2026-06-16T03:50:21.843456,15.30215183,.00013401,53.1578,119.3626,94.2961,265.8193,0,U,66388,999,3480,.95927761E-3,.28173E-3,0
STARLINK-35694,2025-257K,2026-06-16T13:20:44.124864,15.30204606,.0001532,53.1577,117.5672,111.7460,248.3704,0,U,66389,999,3487,.44814E-3,.12938E-3,0
STARLINK-35665,2025-257L,2026-06-16T13:37:26.807232,15.30206367,.0001393,53.1592,117.6211,80.0725,280.0433,0,U,66390,999,3497,.49529E-3,.14341E-3,0
STARLINK-35656,2025-257M,2026-06-16T13:52:02.845344,15.30213416,.0001251,53.1587,120.5329,93.6633,266.4511,0,U,66391,999,3493,.5433E-3,.15773E-3,0
STARLINK-35671,2025-257N,2026-06-16T03:45:46.519488,15.30209951,.00013559,53.1583,119.3402,87.6912,272.4244,0,U,66392,999,3481,.43461862E-3,.12539E-3,0
STARLINK-35652,2025-257P,2026-06-16T16:00:00.999072,15.30176910,.0001202,53.1584,117.6256,90.3485,228.6206,0,U,66393,999,583,.1225E-2,.36074E-3,0
STARLINK-35672,2025-257Q,2026-06-16T13:44:29.907168,15.34406197,.0001116,53.1595,116.2543,65.3315,294.7803,0,U,66394,999,3489,.89879E-3,.30119E-3,0
STARLINK-35681,2025-257R,2026-06-16T16:00:00.999072,15.30157448,.000119,53.1578,117.1539,98.5957,98.8122,0,U,66395,999,588,.13617E-2,.40135E-3,0
STARLINK-35669,2025-257S,2026-06-16T13:11:10.239648,15.34399120,.0001255,53.1572,116.1105,99.3264,260.7881,0,U,66396,999,3489,.55925E-3,.18565E-3,0
STARLINK-35510,2025-257T,2026-06-16T03:47:17.636928,15.30206602,.00013232,53.1582,119.3469,95.5125,264.6027,0,U,66397,999,3481,.53223908E-3,.1544E-3,0
STARLINK-35642,2025-257U,2026-06-16T14:17:49.483968,15.34395247,.0001363,53.1596,116.3948,90.4340,269.6818,0,U,66398,999,3489,.74141E-3,.24752E-3,0
STARLINK-35657,2025-257V,2026-06-16T03:12:10.049760,15.34407283,.0001301,53.1596,118.4878,81.4032,278.7118,0,U,66399,999,3481,.69789622E-3,.23282E-3,0
STARLINK-35667,2025-257W,2026-06-15T03:27:02.934144,15.34415654,.00015515,53.1595,122.9748,79.5725,280.5452,0,U,66400,999,3467,.90130648E-3,.30214E-3,0
STARLINK-35668,2025-257X,2026-06-16T13:47:31.797312,15.34395389,.0001431,53.1603,116.2642,83.3615,276.7550,0,U,66401,999,3489,.81209E-3,.27157E-3,0
STARLINK-35602,2025-257Z,2026-06-16T13:38:26.437920,15.34406940,.0001201,53.1599,116.2235,98.3758,261.7381,0,U,66403,999,3489,.76079E-3,.25421E-3,0
STARLINK-35691,2025-257AA,2026-06-16T13:32:22.826976,15.34408859,.0001465,53.1590,116.1933,81.2843,278.8325,0,U,66404,999,3489,.48463E-3,.16037E-3,0
STARLINK-35683,2025-257AB,2026-06-16T14:05:41.802432,15.34426428,.0000195,53.1609,116.3415,302.7023,57.3961,0,U,66405,999,3482,.81732E-3,.27363E-3,0
STARLINK-34840,2025-257AC,2026-06-16T13:23:17.185056,15.34410215,.0001338,53.1581,116.1491,95.9147,264.2008,0,U,66406,999,3483,.55261E-3,.18346E-3,0
STARLINK-35686,2025-257AD,2026-06-16T13:20:15.531648,15.34397925,.0001343,53.1576,116.1444,108.1104,252.0045,0,U,66407,999,3489,.76507E-3,.25559E-3,0
